HST                     
1 20580U 90037B   22049.53910976  .00001510  00000+0  79574-4 0  9993
2 20580  28.4688 236.4207 0002484 190.5732 199.8332 15.10048271548227
POLAR                   
1 23802U 96013A   22049.42196419  .00000317  00000+0  00000+0 0  9996
2 23802  78.7409 242.8122 5863594 262.9261  30.9778  1.29846838124348
SWAS                    
1 25560U 98071A   22049.37902250  .00000823  00000+0  84739-4 0  9995
2 25560  69.8983 286.1031 0006581 163.9505 196.1861 14.94380046260237
CXO                     
1 25867U 99040B   22051.69659385  .00000806  00000+0  00000+0 0  9993
2 25867  48.5794 242.8754 8677685 230.2053   0.5935  0.37814590 22510
XMM-NEWTON              
1 25989U 99066A   22048.83151254  .00000266  00000+0  00000+0 0  9990
2 25989  70.3712 307.0133 6212732  88.0502   0.2684  0.50138962 15086
TERRA                   
1 25994U 99068A   22049.55106097  .00000174  00000+0  48472-4 0  9991
2 25994  98.1497 124.1348 0001188  94.9114  16.1875 14.57147686179181
CLUSTER II-FM7 (SAMBA)  
1 26410U 00041A   22051.25791511  .00000038  00000+0  00000+0 0  9998
2 26410 133.6812 346.6553 5389339 197.1473 359.4248  0.44200127 25050
CLUSTER II-FM6 (SALSA)  
1 26411U 00041B   22051.24906026  .00000059  00000+0  00000+0 0  9990
2 26411 135.3476 349.4728 6997635 201.7004 359.3890  0.44215523 24369
CLUSTER II-FM5 (RUMBA)  
1 26463U 00045A   22051.25354247  .00000140  00000+0  00000+0 0  9995
2 26463 138.9357 349.6921 6523699 202.3675 359.4855  0.44216277 13228
CLUSTER II-FM8 (TANGO)  
1 26464U 00045B   22051.25702382  .00000038  00000+0  00000+0 0  9999
2 26464 133.6818 346.6458 5387793 197.1586 359.4367  0.44217981 13309
ODIN                    
1 26702U 01007A   22049.53287070  .00002120  00000+0  13763-3 0  9991
2 26702  97.5278  66.4770 0009955 345.9847  14.1104 15.09094580148336
TIMED                   
1 26998U 01055B   22049.55499043  .00000524  00000+0  60419-4 0  9995
2 26998  74.0733 156.4779 0000734 318.6203  41.4922 14.88468747 95313
RHESSI                  
1 27370U 02004A   22049.36910597  .00012398  00000+0  32018-3 0  9991
2 27370  38.0339  22.5327 0012056 290.9881  68.9602 15.38557958108230
INTEGRAL                
1 27540U 02048A   22047.62483832 -.00000029  00000+0  00000+0 0  9993
2 27540  71.7221  67.1802 8947476 299.6608 355.8217  0.37584619 20690
CORIOLIS                
1 27640U 03001A   22049.59164163  .00000033  00000+0  36780-4 0  9998
2 27640  98.7208  60.4680 0015245  80.4187  28.2905 14.19103636990114
SORCE                   
1 27651U 03004A   22049.60821284  .00000747  00000+0  90763-4 0  9992
2 27651  39.9947 160.8999 0023400 354.7748   5.2794 14.89571817 35346
MOST                    
1 27843U 03031D   22049.54062299  .00000014  00000+0  26813-4 0  9993
2 27843  98.7100  58.8803 0010871 127.5552 232.6614 14.20662151966369
SCISAT 1                
1 27858U 03036A   22049.47651117  .00000239  00000+0  38545-4 0  9993
2 27858  73.9320  58.9755 0006714 132.8160 227.3580 14.77440141997852
SWIFT                   
1 28485U 04047A   22049.38580742  .00002518  00000+0  13907-3 0  9994
2 28485  20.5578  65.7154 0010598 228.1381 131.8149 15.05596916945576
CLOUDSAT                
1 29107U 06016A   22049.52612370  .00000147  00000+0  38314-4 0  9999
2 29107  98.3136   8.6856 0002382 339.9506  20.1601 14.62790263841647
CALIPSO                 
1 29108U 06016B   22049.52007487  .00000474  00000+0  10257-3 0  9995
2 29108  98.3104   8.3012 0001377  81.5954 278.5403 14.62722653841630
HINODE (SOLAR-B)        
1 29479U 06041A   22049.57938061  .00000233  00000+0  52700-4 0  9993
2 29479  98.1281  66.2185 0017481 238.2619 121.6880 14.64691704823351
SJ-6C                   
1 29505U 06046A   22049.48713781  .00002396  00000+0  22123-3 0  9995
2 29505  97.7875  71.2710 0005521 141.6579 218.5027 14.95563357834918
SJ-6D                   
1 29506U 06046B   22049.52100291  .00000250  00000+0  28960-4 0  9990
2 29506  97.8066  71.5102 0000872 219.4211 140.6959 14.93752000834384
AGILE                   
1 31135U 07013A   22049.05885011  .00006899  00000+0  15964-3 0  9998
2 31135   2.4680  91.7428 0010526  12.7639 347.2681 15.35438153458554
AIM                     
1 31304U 07015A   22049.31083853  .00004591  00000+0  24429-3 0  9994
2 31304  97.8593 324.2496 0006688  71.5065 288.6893 15.15763110813136
FGRST (GLAST)           
1 33053U 08029A   22049.24369320  .00001165  00000+0  49407-4 0  9999
2 33053  25.5820 259.8176 0011860 238.5556 121.3820 15.11816203755637
WISE                    
1 36119U 09071A   22049.57980584  .00003458  00000+0  11415-3 0  9994
2 36119  97.2561  86.4036 0003169  42.1939 317.9547 15.32062903677294
SDO                     
1 36395U 10005A   22049.18601851 -.00000067  00000+0  00000+0 0  9991
2 36395  31.4225 111.1620 0001676 236.3855 125.3064  1.00276186 44223
CRYOSAT 2               
1 36508U 10013A   22049.57410494  .00000070  00000+0  16553-4 0  9998
2 36508  92.0228 255.2856 0003609 306.8654  53.2222 14.51906651628921
X-SAT                   
1 37389U 11015C   22049.58437052  .00000046  00000+0  37709-4 0  9998
2 37389  98.3522  88.7938 0013069 303.9372  56.0564 14.24403452563289
GCOM-W1 (SHIZUKU)       
1 38337U 12025A   22049.58636610  .00000226  00000+0  60143-4 0  9993
2 38337  98.2076 351.9437 0000751  98.2060  74.8089 14.57149796519002
NUSTAR                  
1 38358U 12031A   22049.10323130  .00001780  00000+0  11093-3 0  9996
2 38358   6.0260 151.8075 0011188  53.6237 306.4924 14.88874675527038
NEOSSAT                 
1 39089U 13009D   22049.54508939  .00000086  00000+0  45500-4 0  9993
2 39089  98.4277 248.7740 0010171 271.8245  88.1776 14.34618034470168
BRITE-AUSTRIA           
1 39091U 13009F   22049.56025326  .00000077  00000+0  41964-4 0  9992
2 39091  98.4118 249.8953 0009341 272.8811  87.1306 14.35230191470376
IRIS                    
1 39197U 13033A   22049.52283611  .00000478  00000+0  71320-4 0  9999
2 39197  97.9670 236.4355 0028563  55.3842 305.0057 14.79036948466397
HISAKI (SPRINT-A)       
1 39253U 13049A   22049.48686715  .00000171  00000+0  14117-3 0  9996
2 39253  29.7213 329.3092 0137357 173.1387 187.1098 13.55260804416955
CASSIOPE                
1 39265U 13055A   22049.52826203  .00010663  00000+0  29319-3 0  9996
2 39265  80.9668  33.1654 0633852 310.0273  44.6898 14.35723734435256
STSAT-3                 
1 39422U 13066G   22049.51254442  .00001084  00000+0  11697-3 0  9999
2 39422  97.4715  61.0847 0021667 321.6120  38.3577 14.90160911448122
SWARM B                 
1 39451U 13067A   22049.52943935  .00001246  00000+0  52337-4 0  9992
2 39451  87.7466  96.9602 0003774  77.8719 282.2950 15.22457620442859
SWARM A                 
1 39452U 13067B   22049.54853588  .00004517  00000+0  88202-4 0  9993
2 39452  87.3552 267.9119 0003293  98.1252 262.0380 15.47153151463562
SWARM C                 
1 39453U 13067C   22049.54845678  .00004492  00000+0  87705-4 0  9994
2 39453  87.3405 267.6251 0003287  98.1505 262.0127 15.47152717463520
BRITE-CA1 (TORONTO)     
1 40020U 14033L   22049.45965645  .00000324  00000+0  63476-4 0  9996
2 40020  97.7610 214.5922 0085776 283.2466  75.9183 14.66861878410213
OCO 2                   
1 40059U 14035A   22049.55017879  .00000194  00000+0  53122-4 0  9990
2 40059  98.1911 352.6602 0001418  86.1558 273.9802 14.57112442406013
BRITE-PL2 (HEWELIUSZ)   
1 40119U 14049B   22049.54922854  .00000552  00000+0  71235-4 0  9992
2 40119  97.8826 146.4551 0015941 271.3713  88.5675 14.84848934406368
RESURS P2               
1 40360U 14087A   22049.52889302  .00003903  00000+0  11596-3 0  9996
2 40360  97.2142 136.9047 0010212 148.1464 337.3755 15.35306023400009
MMS 1                   
1 40482U 15011A   22049.37500000 -.00001793  00000+0  00000+0 0  9997
2 40482  33.2030 110.3704 8553758  44.9851 156.8124  0.28440465 12967
MMS 2                   
1 40483U 15011B   22049.37500000 -.00001792  00000+0  00000+0 0  9997
2 40483  33.2012 110.3736 8553178  44.9909 156.7827  0.28440420 13021
MMS 3                   
1 40484U 15011C   22049.37500000 -.00001792  00000+0  00000+0 0  9998
2 40484  33.1960 110.3396 8553205  45.0179 156.7878  0.28439167 12703
MMS 4                   
1 40485U 15011D   22049.37500000 -.00001792  00000+0  00000+0 0  9999
2 40485  33.2032 110.3721 8552345  44.9837 156.8058  0.28440432 12911
ASTROSAT                
1 40930U 15052A   22049.11935235  .00001021  00000+0  53891-4 0  9998
2 40930   5.9971 309.2013 0009275 266.8482  93.0584 14.76495132345481
DAMPE                   
1 41173U 15078A   22049.53491411  .00000652  00000+0  29617-4 0  9993
2 41173  97.3686  42.1939 0011829 258.4657 254.3454 15.24200446343468
PISAT                   
1 41784U 16059B   22049.40767462  .00000319  00000+0  69629-4 0  9996
2 41784  97.9341  97.2990 0031859 183.4925 176.6061 14.63754578288277
HXMT (HUIYAN)           
1 42758U 17034A   22049.55020404  .00002143  00000+0  14389-3 0  9995
2 42758  43.0180 281.8885 0009361 261.6360 175.5862 15.09732051258201
FLYING LAPTOP           
1 42831U 17042G   22049.52654815  .00000286  00000+0  33644-4 0  9994
2 42831  97.4381 270.8006 0015224  49.7396 310.5140 14.91521268250366
PICSAT                  
1 43132U 18004X   22049.17454866  .00007082  00000+0  26081-3 0  9990
2 43132  97.3842 126.4609 0009623  65.7528 294.4716 15.28103817228178
ZHANGZHENG-1 (CSES)     
1 43194U 18015C   22049.51126339  .00006089  00000+0  27663-3 0  9992
2 43194  97.5033 180.5740 0012748 140.7027 289.9807 15.21065633224540
ICON                    
1 44628U 19068A   22049.55142236  .00001490  00000+0  12256-3 0  9995
2 44628  26.9905   5.4080 0018970 132.3979 227.8187 14.92327749128782
SALSAT                  
1 46495U 20068K   22049.55361293  .00001311  00000+0  99504-4 0  9991
2 46495  97.7198 350.9635 0015576 325.9322  34.0902 15.03904178 76315
IXPE                    
1 49954U 21121A   22046.02635052  .00002274  00000+0  14933-3 0  9992
2 49954   0.2285 201.0830 0011446 295.4195 223.5874 14.90879623 10129
